start=new Date('2022-09-05T00:00:00.000Z').valueOf();
sats=[{"EPOCH":"2022-09-04T17:06:14.177376","ECCENTRICITY":"0.00013040","INCLINATION":"53.0559","SITE":"AFETR","PERIOD":"95.591","LAUNCH_DATE":"2021-02-04","ARG_OF_PERICENTER":"82.2025","MEAN_ANOMALY":"277.9112","TIME_SYSTEM":"UTC","RA_OF_ASC_NODE":"6.6463","SEMIMAJOR_AXIS":"6925.306","REF_FRAME":"TEME","MEAN_ELEMENT_THEORY":"SGP4","CLASSIFICATION_TYPE":"U","PERIAPSIS":"546.268","RCS_SIZE":"LARGE","EPHEMERIS_TYPE":"0","MEAN_MOTION_DDOT":"0.0000000000000","BSTAR":"0.00023864000000","TLE_LINE2":"2 47572  53.0559   6.6463 0001304  82.2025 277.9112 15.06413794 87718","REV_AT_EPOCH":"8771","MEAN_MOTION":"15.06413794","ELEMENT_SET_NO":"999","MEAN_MOTION_DOT":"0.00003276","DECAY_DATE":null,"NORAD_CAT_ID":"47572","TLE_LINE1":"1 47572U 21009AA  22247.71266409  .00003276  00000-0  23864-3 0  9993","CENTER_NAME":"EARTH","OBJECT_TYPE":"PAYLOAD","OBJECT_NAME":"STARLINK-1971","FILE":"3558394","GP_ID":"211751591","OBJECT_ID":"2021-009AA","COUNTRY_CODE":"US","APOAPSIS":"548.074"},{"OBJECT_TYPE":"PAYLOAD","TLE_LINE1":"1 47573U 21009AB  22247.62420616  .00005367  00000-0  37868-3 0  9998","CENTER_NAME":"EARTH","OBJECT_NAME":"STARLINK-1975","NORAD_CAT_ID":"47573","DECAY_DATE":null,"APOAPSIS":"548.113","COUNTRY_CODE":"US","OBJECT_ID":"2021-009AB","GP_ID":"211751846","FILE":"3558394","RCS_SIZE":"LARGE","PERIAPSIS":"546.169","CLASSIFICATION_TYPE":"U","MEAN_ELEMENT_THEORY":"SGP4","REF_FRAME":"TEME","SEMIMAJOR_AXIS":"6925.276","ELEMENT_SET_NO":"999","MEAN_MOTION":"15.06423690","MEAN_MOTION_DOT":"0.00005367","REV_AT_EPOCH":"8769","TLE_LINE2":"2 47573  53.0540   7.0380 0001403  84.0091 276.1058 15.06423690 87698","MEAN_MOTION_DDOT":"0.0000000000000","BSTAR":"0.00037868000000","EPHEMERIS_TYPE":"0","ARG_OF_PERICENTER":"84.0091","RA_OF_ASC_NODE":"7.0380","MEAN_ANOMALY":"276.1058","TIME_SYSTEM":"UTC","INCLINATION":"53.0540","ECCENTRICITY":"0.00014030","EPOCH":"2022-09-04T14:58:51.412224","LAUNCH_DATE":"2021-02-04","PERIOD":"95.591","SITE":"AFETR"},{"SEMIMAJOR_AXIS":"6925.321","REF_FRAME":"TEME","MEAN_ELEMENT_THEORY":"SGP4","CLASSIFICATION_TYPE":"U","PERIAPSIS":"546.310","RCS_SIZE":"LARGE","EPHEMERIS_TYPE":"0","MEAN_MOTION_DDOT":"0.0000000000000","BSTAR":"0.00006703900000","REV_AT_EPOCH":"8728","TLE_LINE2":"2 47574  53.0558  36.6673 0001264  81.5477 278.5655 15.06409114 87285","MEAN_MOTION":"15.06409114","ELEMENT_SET_NO":"999","MEAN_MOTION_DOT":"0.00000717","DECAY_DATE":null,"NORAD_CAT_ID":"47574","CENTER_NAME":"EARTH","TLE_LINE1":"1 47574U 21009AC  22247.70622076  .00000717  00000-0  67039-4 0  9990","OBJECT_TYPE":"PAYLOAD","OBJECT_NAME":"STARLINK-1976","FILE":"3558394","GP_ID":"211750606","OBJECT_ID":"2021-009AC","COUNTRY_CODE":"US","APOAPSIS":"548.061","ECCENTRICITY":"0.00012640","EPOCH":"2022-09-04T16:56:57.473664","INCLINATION":"53.0558","SITE":"AFETR","PERIOD":"95.592","LAUNCH_DATE":"2021-02-04","ARG_OF_PERICENTER":"81.5477","MEAN_ANOMALY":"278.5655","TIME_SYSTEM":"UTC","RA_OF_ASC_NODE":"36.6673"},{"TLE_LINE2":"2 47575  53.0551  36.7217 0001297  80.8797 279.2339 15.06414433 87284","REV_AT_EPOCH":"8728","BSTAR":"0.00018435000000","MEAN_MOTION_DDOT":"0.0000000000000","EPHEMERIS_TYPE":"0","ELEMENT_SET_NO":"999","MEAN_MOTION":"15.06414433","MEAN_MOTION_DOT":"0.00002467","CLASSIFICATION_TYPE":"U","PERIAPSIS":"546.271","MEAN_ELEMENT_THEORY":"SGP4","REF_FRAME":"TEME","SEMIMAJOR_AXIS":"6925.304","RCS_SIZE":"LARGE","GP_ID":"211750854","FILE":"3558394","APOAPSIS":"548.068","COUNTRY_CODE":"US","OBJECT_ID":"2021-009AD","NORAD_CAT_ID":"47575","DECAY_DATE":null,"OBJECT_TYPE":"PAYLOAD","TLE_LINE1":"1 47575U 21009AD  22247.69515970  .00002467  00000-0  18435-3 0  9992","OBJECT_NAME":"STARLINK-1977","CENTER_NAME":"EARTH","PERIOD":"95.591","SITE":"AFETR","LAUNCH_DATE":"2021-02-04","INCLINATION":"53.0551","EPOCH":"2022-09-04T16:41:01.798080","ECCENTRICITY":"0.00012970","TIME_SYSTEM":"UTC","MEAN_ANOMALY":"279.2339","RA_OF_ASC_NODE":"36.7217","ARG_OF_PERICENTER":"80.8797"},{"EPOCH":"2022-09-04T14:17:42.964224","ECCENTRICITY":"0.00011930","INCLINATION":"53.0563","LAUNCH_DATE":"2021-02-04","PERIOD":"95.591","SITE":"AFETR","ARG_OF_PERICENTER":"90.5364","RA_OF_ASC_NODE":"357.1764","MEAN_ANOMALY":"269.5762","TIME_SYSTEM":"UTC","RCS_SIZE":"LARGE","MEAN_ELEMENT_THEORY":"SGP4","PERIAPSIS":"546.344","CLASSIFICATION_TYPE":"U","SEMIMAJOR_AXIS":"6925.305","REF_FRAME":"TEME","MEAN_MOTION_DOT":"0.00003479","MEAN_MOTION":"15.06414294","ELEMENT_SET_NO":"999","MEAN_MOTION_DDOT":"0.0000000000000","BSTAR":"0.00025225000000","REV_AT_EPOCH":"8783","TLE_LINE2":"2 47576  53.0563 357.1764 0001193  90.5364 269.5762 15.06414294 87836","EPHEMERIS_TYPE":"0","OBJECT_TYPE":"PAYLOAD","TLE_LINE1":"1 47576U 21009AE  22247.59563616  .00003479  00000-0  25225-3 0  9991","OBJECT_NAME":"STARLINK-1978","CENTER_NAME":"EARTH","NORAD_CAT_ID":"47576","DECAY_DATE":null,"COUNTRY_CODE":"US","APOAPSIS":"547.996","OBJECT_ID":"2021-009AE","FILE":"3558394","GP_ID":"211751091"},{"SITE":"AFETR","PERIOD":"95.592","LAUNCH_DATE":"2021-02-04","INCLINATION":"53.0570","ECCENTRICITY":"0.00014810","EPOCH":"2022-09-04T16:52:18.444000","MEAN_ANOMALY":"273.4055","TIME_SYSTEM":"UTC","RA_OF_ASC_NODE":"11.6861","ARG_OF_PERICENTER":"86.7103","EPHEMERIS_TYPE":"0","REV_AT_EPOCH":"8764","TLE_LINE2":"2 47577  53.0570  11.6861 0001481  86.7103 273.4055 15.06409571 87643","BSTAR":"0.00018002000000","MEAN_MOTION_DDOT":"0.0000000000000","MEAN_MOTION":"15.06409571","MEAN_MOTION_DOT":"0.00002402","ELEMENT_SET_NO":"999","REF_FRAME":"TEME","SEMIMAJOR_AXIS":"6925.319","PERIAPSIS":"546.159","CLASSIFICATION_TYPE":"U","MEAN_ELEMENT_THEORY":"SGP4","RCS_SIZE":"LARGE","GP_ID":"211751346","FILE":"3558394","OBJECT_ID":"2021-009AF","APOAPSIS":"548.210","COUNTRY_CODE":"US","DECAY_DATE":null,"NORAD_CAT_ID":"47577","OBJECT_TYPE":"PAYLOAD","TLE_LINE1":"1 47577U 21009AF  22247.70299125  .00002402  00000-0  18002-3 0  9996","CENTER_NAME":"EARTH","OBJECT_NAME":"STARLINK-1979"},{"OBJECT_ID":"2021-009AG","COUNTRY_CODE":"US","APOAPSIS":"548.157","FILE":"3558394","GP_ID":"211750106","TLE_LINE1":"1 47578U 21009AG  22247.63066457  .00003671  00000-0  26515-3 0  9996","OBJECT_TYPE":"PAYLOAD","CENTER_NAME":"EARTH","OBJECT_NAME":"STARLINK-1980","DECAY_DATE":null,"NORAD_CAT_ID":"47578","MEAN_MOTION":"15.06408788","MEAN_MOTION_DOT":"0.00003671","ELEMENT_SET_NO":"999","EPHEMERIS_TYPE":"0","MEAN_MOTION_DDOT":"0.0000000000000","BSTAR":"0.00026515000000","REV_AT_EPOCH":"8755","TLE_LINE2":"2 47578  53.0548  17.0173 0001401  89.8917 270.2233 15.06408788 87556","RCS_SIZE":"LARGE","SEMIMAJOR_AXIS":"6925.322","REF_FRAME":"TEME","MEAN_ELEMENT_THEORY":"SGP4","PERIAPSIS":"546.216","CLASSIFICATION_TYPE":"U","RA_OF_ASC_NODE":"17.0173","TIME_SYSTEM":"UTC","MEAN_ANOMALY":"270.2233","ARG_OF_PERICENTER":"89.8917","LAUNCH_DATE":"2021-02-04","SITE":"AFETR","PERIOD":"95.592","ECCENTRICITY":"0.00014010","EPOCH":"2022-09-04T15:08:09.418848","INCLINATION":"53.0548"},{"RA_OF_ASC_NODE":"6.4992","MEAN_ANOMALY":"285.6281","TIME_SYSTEM":"UTC","ARG_OF_PERICENTER":"74.4890","LAUNCH_DATE":"2021-02-04","PERIOD":"95.591","SITE":"AFETR","ECCENTRICITY":"0.00016480","EPOCH":"2022-09-04T17:54:00.650304","INCLINATION":"53.0562","COUNTRY_CODE":"US","APOAPSIS":"548.279","OBJECT_ID":"2021-009AH","FILE":"3558394","GP_ID":"211750354","OBJECT_NAME":"STARLINK-1981","TLE_LINE1":"1 47579U 21009AH  22247.74584086  .00008125  00000-0  56335-3 0  9994","OBJECT_TYPE":"PAYLOAD","CENTER_NAME":"EARTH","NORAD_CAT_ID":"47579","DECAY_DATE":null,"MEAN_MOTION":"15.06424689","MEAN_MOTION_DOT":"0.00008125","ELEMENT_SET_NO":"999","BSTAR":"0.00056335000000","MEAN_MOTION_DDOT":"0.0000000000000","TLE_LINE2":"2 47579  53.0562   6.4992 0001648  74.4890 285.6281 15.06424689 87716","REV_AT_EPOCH":"8771","EPHEMERIS_TYPE":"0","RCS_SIZE":"LARGE","MEAN_ELEMENT_THEORY":"SGP4","CLASSIFICATION_TYPE":"U","PERIAPSIS":"545.997","SEMIMAJOR_AXIS":"6925.273","REF_FRAME":"TEME"},{"OBJECT_TYPE":"PAYLOAD","TLE_LINE1":"1 47580U 21009AJ  22247.63434383  .00001182  00000-0  98202-4 0  9994","CENTER_NAME":"EARTH","OBJECT_NAME":"STARLINK-1982","NORAD_CAT_ID":"47580","DECAY_DATE":null,"COUNTRY_CODE":"US","APOAPSIS":"548.131","OBJECT_ID":"2021-009AJ","FILE":"3558394","GP_ID":"211751592","RCS_SIZE":"LARGE","MEAN_ELEMENT_THEORY":"SGP4","CLASSIFICATION_TYPE":"U","PERIAPSIS":"546.242","SEMIMAJOR_AXIS":"6925.321","REF_FRAME":"TEME","MEAN_MOTION":"15.06408853","ELEMENT_SET_NO":"999","MEAN_MOTION_DOT":"0.00001182","BSTAR":"0.00009820200000","MEAN_MOTION_DDOT":"0.0000000000000","TLE_LINE2":"2 47580  53.0547  16.9924 0001364  80.9350 279.1793 15.06408853 87553","REV_AT_EPOCH":"8755","EPHEMERIS_TYPE":"0","ARG_OF_PERICENTER":"80.9350","RA_OF_ASC_NODE":"16.9924","MEAN_ANOMALY":"279.1793","TIME_SYSTEM":"UTC","ECCENTRICITY":"0.00013640","EPOCH":"2022-09-04T15:13:27.306912","INCLINATION":"53.0547","LAUNCH_DATE":"2021-02-04","PERIOD":"95.592","SITE":"AFETR"},{"MEAN_ANOMALY":"264.0439","TIME_SYSTEM":"UTC","RA_OF_ASC_NODE":"357.0835","ARG_OF_PERICENTER":"96.0689","PERIOD":"95.591","SITE":"AFETR","LAUNCH_DATE":"2021-02-04","ECCENTRICITY":"0.00012180","EPOCH":"2022-09-04T14:44:14.878176","INCLINATION":"53.0561","FILE":"3558394","GP_ID":"211751847","COUNTRY_CODE":"US","APOAPSIS":"548.000","OBJECT_ID":"2021-009AK","NORAD_CAT_ID":"47581","DECAY_DATE":null,"CENTER_NAME":"EARTH","TLE_LINE1":"1 47581U 21009AK  22247.61406109  .00003036  00000-0  22248-3 0  9994","OBJECT_TYPE":"PAYLOAD","OBJECT_NAME":"STARLINK-1984","BSTAR":"0.00022248000000","MEAN_MOTION_DDOT":"0.0000000000000","TLE_LINE2":"2 47581  53.0561 357.0835 0001218  96.0689 264.0439 15.06418696 87838","REV_AT_EPOCH":"8783","EPHEMERIS_TYPE":"0","ELEMENT_SET_NO":"999","MEAN_MOTION":"15.06418696","MEAN_MOTION_DOT":"0.00003036","MEAN_ELEMENT_THEORY":"SGP4","CLASSIFICATION_TYPE":"U","PERIAPSIS":"546.313","SEMIMAJOR_AXIS":"6925.291","REF_FRAME":"TEME","RCS_SIZE":"LARGE"}];
